[{"OBJECT_NAME":"INTELSAT 23 (IS-23)","OBJECT_ID":"2012-057A","EPOCH":"2026-03-14T11:40:46.424352","MEAN_MOTION":1.00269635,"ECCENTRICITY":0.00010659,"INCLINATION":0.0396,"RA_OF_ASC_NODE":255.825,"ARG_OF_PERICENTER":110.6643,"MEAN_ANOMALY":287.7683,"EPHEMERIS_TYPE":0,"CLASSIFICATION_TYPE":"U","NORAD_CAT_ID":38867,"ELEMENT_SET_NO":999,"REV_AT_EPOCH":4900,"BSTAR":0,"MEAN_MOTION_DOT":-2.85e-6,"MEAN_MOTION_DDOT":0},{"OBJECT_NAME":"FM-6","OBJECT_ID":"2013-058A","EPOCH":"2026-03-13T16:33:13.247424","MEAN_MOTION":1.00269118,"ECCENTRICITY":0.00032665,"INCLINATION":0.0194,"RA_OF_ASC_NODE":140.7287,"ARG_OF_PERICENTER":45.2547,"MEAN_ANOMALY":117.4447,"EPHEMERIS_TYPE":0,"CLASSIFICATION_TYPE":"U","NORAD_CAT_ID":39360,"ELEMENT_SET_NO":999,"REV_AT_EPOCH":4511,"BSTAR":0,"MEAN_MOTION_DOT":-1.7e-7,"MEAN_MOTION_DDOT":0},{"OBJECT_NAME":"INTELSAT 30 (IS-30)","OBJECT_ID":"2014-062A","EPOCH":"2026-03-13T15:55:04.361952","MEAN_MOTION":1.00272886,"ECCENTRICITY":0.00016928,"INCLINATION":0.0155,"RA_OF_ASC_NODE":82.4752,"ARG_OF_PERICENTER":30.1295,"MEAN_ANOMALY":202.3988,"EPHEMERIS_TYPE":0,"CLASSIFICATION_TYPE":"U","NORAD_CAT_ID":40271,"ELEMENT_SET_NO":999,"REV_AT_EPOCH":583,"BSTAR":0,"MEAN_MOTION_DOT":-1.51e-6,"MEAN_MOTION_DDOT":0},{"OBJECT_NAME":"DIRECTV 14","OBJECT_ID":"2014-078B","EPOCH":"2026-03-14T13:10:22.831104","MEAN_MOTION":1.00267549,"ECCENTRICITY":6.516e-5,"INCLINATION":0.025,"RA_OF_ASC_NODE":142.2485,"ARG_OF_PERICENTER":341.5058,"MEAN_ANOMALY":146.773,"EPHEMERIS_TYPE":0,"CLASSIFICATION_TYPE":"U","NORAD_CAT_ID":40333,"ELEMENT_SET_NO":999,"REV_AT_EPOCH":4109,"BSTAR":0,"MEAN_MOTION_DOT":0,"MEAN_MOTION_DDOT":0},{"OBJECT_NAME":"DIRECTV 15","OBJECT_ID":"2015-026A","EPOCH":"2026-03-13T23:07:38.647200","MEAN_MOTION":1.00273949,"ECCENTRICITY":5.912e-5,"INCLINATION":0.0239,"RA_OF_ASC_NODE":102.3974,"ARG_OF_PERICENTER":55.2994,"MEAN_ANOMALY":257.9103,"EPHEMERIS_TYPE":0,"CLASSIFICATION_TYPE":"U","NORAD_CAT_ID":40663,"ELEMENT_SET_NO":999,"REV_AT_EPOCH":3950,"BSTAR":0,"MEAN_MOTION_DOT":-1.03e-6,"MEAN_MOTION_DDOT":0},{"OBJECT_NAME":"SKY MEXICO-1","OBJECT_ID":"2015-026B","EPOCH":"2026-03-14T13:16:07.281120","MEAN_MOTION":1.00272495,"ECCENTRICITY":0.00022035,"INCLINATION":0.0205,"RA_OF_ASC_NODE":198.9257,"ARG_OF_PERICENTER":177.8663,"MEAN_ANOMALY":275.5956,"EPHEMERIS_TYPE":0,"CLASSIFICATION_TYPE":"U","NORAD_CAT_ID":40664,"ELEMENT_SET_NO":999,"REV_AT_EPOCH":3950,"BSTAR":0,"MEAN_MOTION_DOT":-2.35e-6,"MEAN_MOTION_DDOT":0},{"OBJECT_NAME":"INTELSAT 34 (IS-34)","OBJECT_ID":"2015-039A","EPOCH":"2026-03-13T21:58:39.537696","MEAN_MOTION":1.00272479,"ECCENTRICITY":2.541e-5,"INCLINATION":0.0172,"RA_OF_ASC_NODE":250.1605,"ARG_OF_PERICENTER":178.7909,"MEAN_ANOMALY":16.7448,"EPHEMERIS_TYPE":0,"CLASSIFICATION_TYPE":"U","NORAD_CAT_ID":40874,"ELEMENT_SET_NO":999,"REV_AT_EPOCH":3866,"BSTAR":0,"MEAN_MOTION_DOT":-2.86e-6,"MEAN_MOTION_DDOT":0},{"OBJECT_NAME":"INTELSAT 31 (IS-31)","OBJECT_ID":"2016-035A","EPOCH":"2026-03-13T11:31:13.544832","MEAN_MOTION":1.00274362,"ECCENTRICITY":0.00015557,"INCLINATION":0.0385,"RA_OF_ASC_NODE":250.9517,"ARG_OF_PERICENTER":346.8834,"MEAN_ANOMALY":11.0308,"EPHEMERIS_TYPE":0,"CLASSIFICATION_TYPE":"U","NORAD_CAT_ID":41581,"ELEMENT_SET_NO":999,"REV_AT_EPOCH":3572,"BSTAR":0,"MEAN_MOTION_DOT":-1.51e-6,"MEAN_MOTION_DDOT":0},{"OBJECT_NAME":"INTELSAT 36 (IS-36)","OBJECT_ID":"2016-053A","EPOCH":"2026-03-13T05:01:14.880864","MEAN_MOTION":1.00272719,"ECCENTRICITY":0.00010995,"INCLINATION":0.0193,"RA_OF_ASC_NODE":126.4574,"ARG_OF_PERICENTER":219.8444,"MEAN_ANOMALY":328.363,"EPHEMERIS_TYPE":0,"CLASSIFICATION_TYPE":"U","NORAD_CAT_ID":41747,"ELEMENT_SET_NO":999,"REV_AT_EPOCH":3499,"BSTAR":0,"MEAN_MOTION_DOT":0,"MEAN_MOTION_DDOT":0},{"OBJECT_NAME":"INTELSAT 32E (IS-32E)","OBJECT_ID":"2017-007B","EPOCH":"2026-03-12T11:48:18.137376","MEAN_MOTION":1.00269761,"ECCENTRICITY":1.16e-5,"INCLINATION":0.0131,"RA_OF_ASC_NODE":123.3831,"ARG_OF_PERICENTER":337.3904,"MEAN_ANOMALY":203.2341,"EPHEMERIS_TYPE":0,"CLASSIFICATION_TYPE":"U","NORAD_CAT_ID":41945,"ELEMENT_SET_NO":999,"REV_AT_EPOCH":3325,"BSTAR":0,"MEAN_MOTION_DOT":-2.69e-6,"MEAN_MOTION_DDOT":0},{"OBJECT_NAME":"INTELSAT 35E (IS-35E)","OBJECT_ID":"2017-041A","EPOCH":"2026-03-14T11:46:08.410368","MEAN_MOTION":1.00271456,"ECCENTRICITY":0.00020815,"INCLINATION":0.0133,"RA_OF_ASC_NODE":221.4474,"ARG_OF_PERICENTER":138.1487,"MEAN_ANOMALY":314.5311,"EPHEMERIS_TYPE":0,"CLASSIFICATION_TYPE":"U","NORAD_CAT_ID":42818,"ELEMENT_SET_NO":999,"REV_AT_EPOCH":3186,"BSTAR":0,"MEAN_MOTION_DOT":-2.39e-6,"MEAN_MOTION_DDOT":0},{"OBJECT_NAME":"INTELSAT 37E (IS-37E)","OBJECT_ID":"2017-059A","EPOCH":"2026-03-14T10:08:07.083744","MEAN_MOTION":1.00273056,"ECCENTRICITY":0.00021179,"INCLINATION":0.016,"RA_OF_ASC_NODE":139.836,"ARG_OF_PERICENTER":220.1085,"MEAN_ANOMALY":306.1136,"EPHEMERIS_TYPE":0,"CLASSIFICATION_TYPE":"U","NORAD_CAT_ID":42950,"ELEMENT_SET_NO":999,"REV_AT_EPOCH":3111,"BSTAR":0,"MEAN_MOTION_DOT":-1.41e-6,"MEAN_MOTION_DDOT":0},{"OBJECT_NAME":"AZERSPACE 2 (IS-38)","OBJECT_ID":"2018-074A","EPOCH":"2026-03-12T07:08:38.796864","MEAN_MOTION":1.00266327,"ECCENTRICITY":0.0002142,"INCLINATION":0.0162,"RA_OF_ASC_NODE":167.1748,"ARG_OF_PERICENTER":185.4789,"MEAN_ANOMALY":329.5515,"EPHEMERIS_TYPE":0,"CLASSIFICATION_TYPE":"U","NORAD_CAT_ID":43632,"ELEMENT_SET_NO":999,"REV_AT_EPOCH":2747,"BSTAR":0,"MEAN_MOTION_DOT":1.38e-6,"MEAN_MOTION_DDOT":0},{"OBJECT_NAME":"HORIZONS-3E","OBJECT_ID":"2018-074B","EPOCH":"2026-03-13T07:44:38.605056","MEAN_MOTION":1.00272801,"ECCENTRICITY":6.022e-5,"INCLINATION":0.0019,"RA_OF_ASC_NODE":309.6363,"ARG_OF_PERICENTER":51.3128,"MEAN_ANOMALY":95.1397,"EPHEMERIS_TYPE":0,"CLASSIFICATION_TYPE":"U","NORAD_CAT_ID":43633,"ELEMENT_SET_NO":999,"REV_AT_EPOCH":2738,"BSTAR":0,"MEAN_MOTION_DOT":-3.1e-7,"MEAN_MOTION_DDOT":0},{"OBJECT_NAME":"AT&T T-16","OBJECT_ID":"2019-034A","EPOCH":"2026-03-14T01:10:58.594656","MEAN_MOTION":1.00272737,"ECCENTRICITY":0.00010645,"INCLINATION":0.02,"RA_OF_ASC_NODE":105.2665,"ARG_OF_PERICENTER":57.2361,"MEAN_ANOMALY":286.0465,"EPHEMERIS_TYPE":0,"CLASSIFICATION_TYPE":"U","NORAD_CAT_ID":44333,"ELEMENT_SET_NO":999,"REV_AT_EPOCH":2467,"BSTAR":0,"MEAN_MOTION_DOT":-1.16e-6,"MEAN_MOTION_DDOT":0},{"OBJECT_NAME":"INTELSAT 39 (IS-39)","OBJECT_ID":"2019-049B","EPOCH":"2026-03-13T16:34:11.841312","MEAN_MOTION":1.00269923,"ECCENTRICITY":6.292e-5,"INCLINATION":0.0249,"RA_OF_ASC_NODE":154.7739,"ARG_OF_PERICENTER":350.3364,"MEAN_ANOMALY":336.7119,"EPHEMERIS_TYPE":0,"CLASSIFICATION_TYPE":"U","NORAD_CAT_ID":44476,"ELEMENT_SET_NO":999,"REV_AT_EPOCH":2417,"BSTAR":0,"MEAN_MOTION_DOT":0,"MEAN_MOTION_DDOT":0},{"OBJECT_NAME":"GALAXY 30 (G-30)","OBJECT_ID":"2020-056C","EPOCH":"2026-03-14T13:34:37.850304","MEAN_MOTION":1.00270006,"ECCENTRICITY":0.00020184,"INCLINATION":0.0263,"RA_OF_ASC_NODE":152.9208,"ARG_OF_PERICENTER":214.083,"MEAN_ANOMALY":243.8401,"EPHEMERIS_TYPE":0,"CLASSIFICATION_TYPE":"U","NORAD_CAT_ID":46114,"ELEMENT_SET_NO":999,"REV_AT_EPOCH":2034,"BSTAR":0,"MEAN_MOTION_DOT":0,"MEAN_MOTION_DDOT":0}]
